STARLINK-36933          
1 69196U 26114Q   26158.50004630  .00015425  00000+0  81460-4 0  9994
2 69196  53.1588 250.6896 0000976 102.1995 170.5374 15.80896460  3252
STARLINK-37419          
1 69197U 26114R   26158.50004630 -.00008568  00000+0 -39870-4 0  9995
2 69197  53.1588 250.6721 0001211  96.8894 184.3965 15.80894419  3251
STARLINK-37321          
1 69198U 26114S   26158.50004630  .00038294  00000+0  19679-3 0  9997
2 69198  53.1593 250.6636 0001228  91.2017 194.3860 15.80862299  3253
STARLINK-37406          
1 69199U 26114T   26158.50004630  .00069894  00000+0  35492-3 0  9999
2 69199  53.1588 250.6545 0001024  83.6894 206.1434 15.80865155  3252
STARLINK-37761          
1 69200U 26114U   26158.50004630 -.00015619  00000+0 -75606-4 0  9992
2 69200  53.1588 250.6456 0001191  69.7667 224.3222 15.80909176  3253
STARLINK-37754          
1 69201U 26114V   26158.50004630 -.00007065  00000+0 -32235-4 0  9990
2 69201  53.1588 250.6346 0000965  91.4257 208.0400 15.80903723  3256
STARLINK-37649          
1 69202U 26114W   26158.50004630  .00036476  00000+0  18743-3 0  9994
2 69202  53.1588 250.6285 0001064  92.9258 209.7125 15.80889115  3257
STARLINK-37604          
1 69203U 26114X   26158.50004630  .00081108  00000+0  41089-3 0  9996
2 69203  53.1588 250.6195 0000905  86.1847 220.7385 15.80858441  3259
STARLINK-37669          
1 69204U 26114Y   26158.50004630  .00088503  00000+0  44768-3 0  9990
2 69204  53.1587 250.6104 0001200  85.1561 226.0397 15.80857270  3251
STARLINK-37691          
1 69205U 26114Z   26158.50004630 -.02257095  00000+0 -12965-1 0  9991
2 69205  53.1587 250.5836 0000938 100.2738 223.7281 15.81125543  3253
STARLINK-37671          
1 69206U 26114AA  26158.50004630  .00055900  00000+0  28491-3 0  9992
2 69206  53.1586 250.5925 0000985  93.5405 226.1918 15.80874164  3252
STARLINK-37647          
1 69207U 26114AB  26158.50004630 -.00073910  00000+0 -37323-3 0  9990
2 69207  53.1585 250.6015 0001032 102.9063 212.5412 15.80925033  3252
STARLINK-37562          
1 69208U 26114AC  26158.50004630 -.00015467  00000+0 -74884-4 0  9998
2 69208  53.1585 250.5744 0001122  80.6709 247.6032 15.80894261  3255
STARLINK-37682          
1 69209U 26114AD  26158.50004630  .00006641  00000+0  37143-4 0  9998
2 69209  53.1584 250.5656 0001015  87.8385 244.7100 15.80884532  3251
STARLINK-37402          
1 69210U 26114AE  26158.50004630 -.00027711  00000+0 -13715-3 0  9991
2 69210  53.1584 250.5568 0001042 100.4879 236.3273 15.80897795  3258
STARLINK-37613          
1 69211U 26115A   26158.50004630 -.02378173  00000+0 -17697-1 0  9997
2 69211  97.2841 175.4182 0001503  86.0296 342.6540 15.76174858  3133
STARLINK-37713          
1 69212U 26115B   26158.29533411  .00455633  00000+0  22396-2 0  9994
2 69212  97.2837 175.2090 0001103 120.4891 239.6487 15.80989335  3128
STARLINK-37716          
1 69213U 26115C   26158.29608747  .00237715  00000+0  12069-2 0  9995
2 69213  97.2841 175.2082 0001885 101.7847 258.3633 15.80839846  3127
STARLINK-37620          
1 69214U 26115D   26158.50004630 -.02567299  00000+0 -22901-1 0  9993
2 69214  97.2846 175.4149 0001572  81.6654 339.6446 15.71679408  3136
STARLINK-37700          
1 69215U 26115E   26158.50004630 -.02458375  00000+0 -32950-1 0  9993
2 69215  97.2845 175.3756 0001136 106.5338 222.1457 15.61497908  3131
STARLINK-37766          
1 69216U 26115F   26158.29308345  .00425382  00000+0  21010-2 0  9994
2 69216  97.2835 175.2117 0001320 135.4636 224.6738 15.80961618  3121
STARLINK-37763          
1 69217U 26115G   26158.29244574  .00441252  00000+0  21734-2 0  9995
2 69217  97.2836 175.2126 0001429 129.9599 230.1795 15.80981187  3127
STARLINK-37724          
1 69218U 26115H   26158.29160851  .00426217  00000+0  21033-2 0  9997
2 69218  97.2840 175.2141 0001596 138.2040 221.9350 15.80978881  3121
STARLINK-37758          
1 69219U 26115J   26158.22509718  .00247988  00000+0  12540-2 0  9999
2 69219  97.2837 175.1522 0000524 105.2222 254.9105 15.80902519  3114
STARLINK-37201          
1 69220U 26115K   26158.00004630  .00123317  00000+0  63623-3 0  9998
2 69220  97.2846 174.9126 0001171  90.9419  62.2805 15.80790363  3052
STARLINK-37728          
1 69221U 26115L   26158.22391356  .00275123  00000+0  13862-2 0  9999
2 69221  97.2839 175.1534 0000435  35.4672 324.6625 15.80910365  3116
STARLINK-37760          
1 69222U 26115M   26158.22665632  .00259093  00000+0  13085-2 0  9996
2 69222  97.2842 175.1496 0000755  95.6363 264.4992 15.80900662  3115
STARLINK-37759          
1 69223U 26115N   26158.22319646  .00306914  00000+0  15397-2 0  9991
2 69223  97.2836 175.1541 0000650  70.6202 289.5137 15.80923241  3116
STARLINK-37725          
1 69224U 26115P   26158.22376550  .00329195  00000+0  16471-2 0  9999
2 69224  97.2841 175.1536 0000847  59.8099 300.3253 15.80925276  3119
STARLINK-37770          
1 69225U 26115Q   26158.22436853  .00237560  00000+0  12059-2 0  9995
2 69225  97.2842 175.1527 0001179  99.0396 261.1006 15.80844970  3117
