OBJECT_NAME,OBJECT_ID,EPOCH,MEAN_MOTION,ECCENTRICITY,INCLINATION,RA_OF_ASC_NODE,ARG_OF_PERICENTER,MEAN_ANOMALY,EPHEMERIS_TYPE,CLASSIFICATION_TYPE,NORAD_CAT_ID,ELEMENT_SET_NO,REV_AT_EPOCH,BSTAR,MEAN_MOTION_DOT,MEAN_MOTION_DDOT
STARLINK-36933,2026-114Q,2026-06-07T12:00:04.000320,15.80896460,.0000976,53.1588,250.6896,102.1995,170.5374,0,U,69196,999,325,.8146E-4,.15425E-3,0
STARLINK-37419,2026-114R,2026-06-07T12:00:04.000320,15.80894419,.0001211,53.1588,250.6721,96.8894,184.3965,0,U,69197,999,325,-.3987E-4,-.8568E-4,0
STARLINK-37321,2026-114S,2026-06-07T12:00:04.000320,15.80862299,.0001228,53.1593,250.6636,91.2017,194.3860,0,U,69198,999,325,.19679E-3,.38294E-3,0
STARLINK-37406,2026-114T,2026-06-07T12:00:04.000320,15.80865155,.0001024,53.1588,250.6545,83.6894,206.1434,0,U,69199,999,325,.35492E-3,.69894E-3,0
STARLINK-37761,2026-114U,2026-06-07T12:00:04.000320,15.80909176,.0001191,53.1588,250.6456,69.7667,224.3222,0,U,69200,999,325,-.75606E-4,-.15619E-3,0
STARLINK-37754,2026-114V,2026-06-07T12:00:04.000320,15.80903723,.0000965,53.1588,250.6346,91.4257,208.0400,0,U,69201,999,325,-.32235E-4,-.7065E-4,0
STARLINK-37649,2026-114W,2026-06-07T12:00:04.000320,15.80889115,.0001064,53.1588,250.6285,92.9258,209.7125,0,U,69202,999,325,.18743E-3,.36476E-3,0
STARLINK-37604,2026-114X,2026-06-07T12:00:04.000320,15.80858441,.0000905,53.1588,250.6195,86.1847,220.7385,0,U,69203,999,325,.41089E-3,.81108E-3,0
STARLINK-37669,2026-114Y,2026-06-07T12:00:04.000320,15.80857270,.00012,53.1587,250.6104,85.1561,226.0397,0,U,69204,999,325,.44768E-3,.88503E-3,0
STARLINK-37691,2026-114Z,2026-06-07T12:00:04.000320,15.81125543,.0000938,53.1587,250.5836,100.2738,223.7281,0,U,69205,999,325,-.12965E-1,-.2257095E-1,0
STARLINK-37671,2026-114AA,2026-06-07T12:00:04.000320,15.80874164,.0000985,53.1586,250.5925,93.5405,226.1918,0,U,69206,999,325,.28491E-3,.559E-3,0
STARLINK-37647,2026-114AB,2026-06-07T12:00:04.000320,15.80925033,.0001032,53.1585,250.6015,102.9063,212.5412,0,U,69207,999,325,-.37323E-3,-.7391E-3,0
STARLINK-37562,2026-114AC,2026-06-07T12:00:04.000320,15.80894261,.0001122,53.1585,250.5744,80.6709,247.6032,0,U,69208,999,325,-.74884E-4,-.15467E-3,0
STARLINK-37682,2026-114AD,2026-06-07T12:00:04.000320,15.80884532,.0001015,53.1584,250.5656,87.8385,244.7100,0,U,69209,999,325,.37143E-4,.6641E-4,0
STARLINK-37402,2026-114AE,2026-06-07T12:00:04.000320,15.80897795,.0001042,53.1584,250.5568,100.4879,236.3273,0,U,69210,999,325,-.13715E-3,-.27711E-3,0
STARLINK-37613,2026-115A,2026-06-07T12:00:04.000320,15.76174858,.0001503,97.2841,175.4182,86.0296,342.6540,0,U,69211,999,313,-.17697E-1,-.2378173E-1,0
STARLINK-37713,2026-115B,2026-06-07T07:05:16.867104,15.80989335,.0001103,97.2837,175.2090,120.4891,239.6487,0,U,69212,999,312,.22396E-2,.455633E-2,0
STARLINK-37716,2026-115C,2026-06-07T07:06:21.957408,15.80839846,.0001885,97.2841,175.2082,101.7847,258.3633,0,U,69213,999,312,.12069E-2,.237715E-2,0
STARLINK-37620,2026-115D,2026-06-07T12:00:04.000320,15.71679408,.0001572,97.2846,175.4149,81.6654,339.6446,0,U,69214,999,313,-.22901E-1,-.2567299E-1,0
STARLINK-37700,2026-115E,2026-06-07T12:00:04.000320,15.61497908,.0001136,97.2845,175.3756,106.5338,222.1457,0,U,69215,999,313,-.3295E-1,-.2458375E-1,0
STARLINK-37766,2026-115F,2026-06-07T07:02:02.410080,15.80961618,.000132,97.2835,175.2117,135.4636,224.6738,0,U,69216,999,312,.2101E-2,.425382E-2,0
STARLINK-37763,2026-115G,2026-06-07T07:01:07.311936,15.80981187,.0001429,97.2836,175.2126,129.9599,230.1795,0,U,69217,999,312,.21734E-2,.441252E-2,0
STARLINK-37724,2026-115H,2026-06-07T06:59:54.975264,15.80978881,.0001596,97.2840,175.2141,138.2040,221.9350,0,U,69218,999,312,.21033E-2,.426217E-2,0
STARLINK-37758,2026-115J,2026-06-07T05:24:08.396352,15.80902519,.0000524,97.2837,175.1522,105.2222,254.9105,0,U,69219,999,311,.1254E-2,.247988E-2,0
STARLINK-37201,2026-115K,2026-06-07T00:00:04.000320,15.80790363,.0001171,97.2846,174.9126,90.9419,62.2805,0,U,69220,999,305,.63623E-3,.123317E-2,0
STARLINK-37728,2026-115L,2026-06-07T05:22:26.131584,15.80910365,.0000435,97.2839,175.1534,35.4672,324.6625,0,U,69221,999,311,.13862E-2,.275123E-2,0
STARLINK-37760,2026-115M,2026-06-07T05:26:23.106048,15.80900662,.0000755,97.2842,175.1496,95.6363,264.4992,0,U,69222,999,311,.13085E-2,.259093E-2,0
STARLINK-37759,2026-115N,2026-06-07T05:21:24.174144,15.80923241,.000065,97.2836,175.1541,70.6202,289.5137,0,U,69223,999,311,.15397E-2,.306914E-2,0
STARLINK-37725,2026-115P,2026-06-07T05:22:13.339200,15.80925276,.0000847,97.2841,175.1536,59.8099,300.3253,0,U,69224,999,311,.16471E-2,.329195E-2,0
STARLINK-37770,2026-115Q,2026-06-07T05:23:05.440992,15.80844970,.0001179,97.2842,175.1527,99.0396,261.1006,0,U,69225,999,311,.12059E-2,.23756E-2,0
